STARLINK-31797          
1 59634U 24082D   26068.56394912 -.00000453  00000+0 -69527-5 0  9991
2 59634  43.0006 140.4405 0001214 261.4726  98.5988 15.27570618104831
TEVEL2-8                
1 63239U 25052AF  26068.66815442  .00019130  00000+0  69304-3 0  9993
2 63239  97.4055 324.2923 0008031 124.9191 235.2804 15.28392908 54807
